{"type": "FeatureCollection", "features": [ {"type": "Feature", "properties": {"norad_id": 66643, "name": "STARLINK-35918", "group": "last-30-days", "lat": -16.969781981453313, "lon": 58.77641299728492, "alt_km": 328.41418290670026, "timestamp": "2025-12-04T21:36:14.653852+00:00", "meta": {"OBJECT_NAME": "STARLINK-35918", "OBJECT_ID": "2025-271AC", "EPOCH": "2025-12-04T07:06:05.305536", "MEAN_MOTION": 15.81332685, "ECCENTRICITY": 0.00047257, "INCLINATION": 53.1562, "RA_OF_ASC_NODE": 228.5791, "ARG_OF_PERICENTER": 215.6429, "MEAN_ANOMALY": 144.4279, "EPHEMERIS_TYPE": 0, "CLASSIFICATION_TYPE": "U", "NORAD_CAT_ID": 66643, "ELEMENT_SET_NO": 999, "REV_AT_EPOCH": 288, "BSTAR": -0.0029916719, "MEAN_MOTION_DOT": -0.00566864, "MEAN_MOTION_DDOT": 0}, "tle": {"line1": "1 66643U 25271AC  25338.29589474 -.00566864  00000+0 -29917-2 0  9997", "line2": "2 66643  53.1562 228.5791 0004725 215.6429 144.4279 15.81332685  2881"}}, "geometry": {"type": "Point", "coordinates": [58.77641299728492, -16.969781981453313]}}, {"type": "Feature", "properties": {"norad_id": 66644, "name": "STARLINK-35938", "group": "last-30-days", "lat": -18.75027340928507, "lon": 60.290481448017154, "alt_km": 331.11725577841844, "timestamp": "2025-12-04T21:36:14.653862+00:00", "meta": {"OBJECT_NAME": "STARLINK-35938", "OBJECT_ID": "2025-271AD", "EPOCH": "2025-12-04T07:05:34.951488", "MEAN_MOTION": 15.81341829, "ECCENTRICITY": 0.00014773, "INCLINATION": 53.1561, "RA_OF_ASC_NODE": 228.5764, "ARG_OF_PERICENTER": 116.2756, "MEAN_ANOMALY": 243.8419, "EPHEMERIS_TYPE": 0, "CLASSIFICATION_TYPE": "U", "NORAD_CAT_ID": 66644, "ELEMENT_SET_NO": 999, "REV_AT_EPOCH": 288, "BSTAR": -0.0022389429, "MEAN_MOTION_DOT": -0.00430598, "MEAN_MOTION_DDOT": 0}, "tle": {"line1": "1 66644U 25271AD  25338.29554342 -.00430598  00000+0 -22389-2 0  9994", "line2": "2 66644  53.1561 228.5764 0001477 116.2756 243.8419 15.81341829  2881"}}, "geometry": {"type": "Point", "coordinates": [60.290481448017154, -18.75027340928507]}}, {"type": "Feature", "properties": {"norad_id": 66645, "name": "SHENZHOU-22", "group": "last-30-days", "lat": 4.55891200775877, "lon": 69.46308474426213, "alt_km": 385.0165039675767, "timestamp": "2025-12-04T21:36:14.653872+00:00", "meta": {"OBJECT_NAME": "SHENZHOU-22", "OBJECT_ID": "2025-272A", "EPOCH": "2025-12-04T15:25:24.990240", "MEAN_MOTION": 15.58669844, "ECCENTRICITY": 0.00099747, "INCLINATION": 41.4682, "RA_OF_ASC_NODE": 65.8455, "ARG_OF_PERICENTER": 328.5002, "MEAN_ANOMALY": 31.5238, "EPHEMERIS_TYPE": 0, "CLASSIFICATION_TYPE": "U", "NORAD_CAT_ID": 66645, "ELEMENT_SET_NO": 999, "REV_AT_EPOCH": 26279, "BSTAR": 0.00047697443, "MEAN_MOTION_DOT": 0.00037639, "MEAN_MOTION_DDOT": 0}, "tle": {"line1": "1 66645U 25272A   25338.64265035  .00037639  00000+0  47697-3 0  9990", "line2": "2 66645  41.4682  65.8455 0009974 328.5002  31.5238 15.58669844262790"}}, "geometry": {"type": "Point", "coordinates": [69.46308474426213, 4.55891200775877]}}, {"type": "Feature", "properties": {"norad_id": 66646, "name": "CZ-2F R/B", "group": "last-30-days", "lat": -9.895828926267258, "lon": -108.5670376856136, "alt_km": 183.38179682756163, "timestamp": "2025-12-04T21:36:14.653886+00:00", "meta": {"OBJECT_NAME": "CZ-2F R/B", "OBJECT_ID": "2025-272B", "EPOCH": "2025-11-26T11:17:54.506400", "MEAN_MOTION": 16.01945612, "ECCENTRICITY": 0.01210796, "INCLINATION": 41.4431, "RA_OF_ASC_NODE": 114.9009, "ARG_OF_PERICENTER": 133.7676, "MEAN_ANOMALY": 227.3272, "EPHEMERIS_TYPE": 0, "CLASSIFICATION_TYPE": "U", "NORAD_CAT_ID": 66646, "ELEMENT_SET_NO": 999, "REV_AT_EPOCH": 21, "BSTAR": 0.00029319366, "MEAN_MOTION_DOT": 0.00449059, "MEAN_MOTION_DDOT": 7.567612e-06}, "tle": {"line1": "1 66646U 25272B   25330.47076975  .00449059  75676-5  29319-3 0  9998", "line2": "2 66646  41.4431 114.9009 0121079 133.7676 227.3272 16.01945612   217"}}, "geometry": {"type": "Point", "coordinates": [-108.5670376856136, -9.895828926267258]}}, {"type": "Feature", "properties": {"norad_id": 66647, "name": "COSMOS 2597 (RODNIK-S 22)", "group": "last-30-days", "lat": -4.908793506074746, "lon": -69.33049639522163, "alt_km": 1497.3496243701447, "timestamp": "2025-12-04T21:36:14.653897+00:00", "meta": {"OBJECT_NAME": "COSMOS 2597 (RODNIK-S 22)", "OBJECT_ID": "2025-273A", "EPOCH": "2025-12-04T15:49:49.728576", "MEAN_MOTION": 12.41951066, "ECCENTRICITY": 0.00080984, "INCLINATION": 82.4982, "RA_OF_ASC_NODE": 291.4672, "ARG_OF_PERICENTER": 308.1672, "MEAN_ANOMALY": 51.8677, "EPHEMERIS_TYPE": 0, "CLASSIFICATION_TYPE": "U", "NORAD_CAT_ID": 66647, "ELEMENT_SET_NO": 999, "REV_AT_EPOCH": 113, "BSTAR": -3.184357e-05, "MEAN_MOTION_DOT": 5e-08, "MEAN_MOTION_DDOT": 0}, "tle": {"line1": "1 66647U 25273A   25338.65960334  .00000005  00000+0 -31844-4 0  9994", "line2": "2 66647  82.4982 291.4672 0008098 308.1672  51.8677 12.41951066  1131"}}, "geometry": {"type": "Point", "coordinates": [-69.33049639522163, -4.908793506074746]}}, {"type": "Feature", "properties": {"norad_id": 66648, "name": "COSMOS 2598 (RODNIK-S 23)", "group": "last-30-days", "lat": 5.074130199550889, "lon": -68.00655469267757, "alt_km": 1496.7627339958626, "timestamp": "2025-12-04T21:36:14.653907+00:00", "meta": {"OBJECT_NAME": "COSMOS 2598 (RODNIK-S 23)", "OBJECT_ID": "2025-273B", "EPOCH": "2025-12-04T06:06:47.884896", "MEAN_MOTION": 12.42253119, "ECCENTRICITY": 0.0008196, "INCLINATION": 82.5023, "RA_OF_ASC_NODE": 291.7242, "ARG_OF_PERICENTER": 297.6387, "MEAN_ANOMALY": 62.386, "EPHEMERIS_TYPE": 0, "CLASSIFICATION_TYPE": "U", "NORAD_CAT_ID": 66648, "ELEMENT_SET_NO": 999, "REV_AT_EPOCH": 108, "BSTAR": -2.0719747e-05, "MEAN_MOTION_DOT": 7e-08, "MEAN_MOTION_DDOT": 0}, "tle": {"line1": "1 66648U 25273B   25338.25472089  .00000007  00000+0 -20720-4 0  9999", "line2": "2 66648  82.5023 291.7242 0008196 297.6387  62.3860 12.42253119  1089"}}, "geometry": {"type": "Point", "coordinates": [-68.00655469267757, 5.074130199550889]}}, {"type": "Feature", "properties": {"norad_id": 66649, "name": "COSMOS 2599 (RODNIK-S 24)", "group": "last-30-days", "lat": -14.139237828298233, "lon": -70.57109005042409, "alt_km": 1498.0854153226, "timestamp": "2025-12-04T21:36:14.653917+00:00", "meta": {"OBJECT_NAME": "COSMOS 2599 (RODNIK-S 24)", "OBJECT_ID": "2025-273C", "EPOCH": "2025-12-04T15:52:44.897664", "MEAN_MOTION": 12.41671792, "ECCENTRICITY": 0.0008324, "INCLINATION": 82.5023, "RA_OF_ASC_NODE": 291.4778, "ARG_OF_PERICENTER": 318.4721, "MEAN_ANOMALY": 41.5725, "EPHEMERIS_TYPE": 0, "CLASSIFICATION_TYPE": "U", "NORAD_CAT_ID": 66649, "ELEMENT_SET_NO": 999, "REV_AT_EPOCH": 113, "BSTAR": -3.5781314e-05, "MEAN_MOTION_DOT": 5e-08, "MEAN_MOTION_DDOT": 0}, "tle": {"line1": "1 66649U 25273C   25338.66163076  .00000005  00000+0 -35781-4 0  9999", "line2": "2 66649  82.5023 291.4778 0008324 318.4721  41.5725 12.41671792  1133"}}, "geometry": {"type": "Point", "coordinates": [-70.57109005042409, -14.139237828298233]}}, {"type": "Feature", "properties": {"norad_id": 66650, "name": "2025-274A", "group": "last-30-days", "lat": -19.684104264777407, "lon": -90.979522109425, "alt_km": 594.2417348087201, "timestamp": "2025-12-04T21:36:14.653929+00:00", "meta": {"OBJECT_NAME": "2025-274A", "OBJECT_ID": "2025-274A", "EPOCH": "2025-12-04T08:48:46.862784", "MEAN_MOTION": 14.91617165, "ECCENTRICITY": 0.00104087, "INCLINATION": 97.7386, "RA_OF_ASC_NODE": 265.7091, "ARG_OF_PERICENTER": 283.9382, "MEAN_ANOMALY": 76.0679, "EPHEMERIS_TYPE": 0, "CLASSIFICATION_TYPE": "U", "NORAD_CAT_ID": 66650, "ELEMENT_SET_NO": 999, "REV_AT_EPOCH": 115, "BSTAR": 0.00037799921, "MEAN_MOTION_DOT": 3.743e-05, "MEAN_MOTION_DDOT": 0}, "tle": {"line1": "1 66650U 25274A   25338.36720906  .00003743  00000+0  37800-3 0  9994", "line2": "2 66650  97.7386 265.7091 0010408 283.9382  76.0679 14.91617165  1156"}}, "geometry": {"type": "Point", "coordinates": [-90.979522109425, -19.684104264777407]}}, {"type": "Feature", "properties": {"norad_id": 66651, "name": "2025-274B", "group": "last-30-days", "lat": -17.859953423513083, "lon": -91.2564424968882, "alt_km": 593.9591447184112, "timestamp": "2025-12-04T21:36:14.653939+00:00", "meta": {"OBJECT_NAME": "2025-274B", "OBJECT_ID": "2025-274B", "EPOCH": "2025-12-04T08:48:19.804032", "MEAN_MOTION": 14.91698789, "ECCENTRICITY": 0.00106945, "INCLINATION": 97.7382, "RA_OF_ASC_NODE": 265.709, "ARG_OF_PERICENTER": 283.4795, "MEAN_ANOMALY": 76.5232, "EPHEMERIS_TYPE": 0, "CLASSIFICATION_TYPE": "U", "NORAD_CAT_ID": 66651, "ELEMENT_SET_NO": 999, "REV_AT_EPOCH": 115, "BSTAR": 0.00084624109, "MEAN_MOTION_DOT": 8.473e-05, "MEAN_MOTION_DDOT": 0}, "tle": {"line1": "1 66651U 25274B   25338.36689588  .00008473  00000+0  84624-3 0  9996", "line2": "2 66651  97.7382 265.7090 0010694 283.4795  76.5232 14.91698789  1153"}}, "geometry": {"type": "Point", "coordinates": [-91.2564424968882, -17.859953423513083]}}, {"type": "Feature", "properties": {"norad_id": 66652, "name": "2025-274C", "group": "last-30-days", "lat": -13.537152197818083, "lon": -91.88903700697347, "alt_km": 592.9806661307612, "timestamp": "2025-12-04T21:36:14.653951+00:00", "meta": {"OBJECT_NAME": "2025-274C", "OBJECT_ID": "2025-274C", "EPOCH": "2025-12-04T13:36:58.988160", "MEAN_MOTION": 14.91837495, "ECCENTRICITY": 0.0010432, "INCLINATION": 97.7387, "RA_OF_ASC_NODE": 265.908, "ARG_OF_PERICENTER": 289.3386, "MEAN_ANOMALY": 70.6705, "EPHEMERIS_TYPE": 0, "CLASSIFICATION_TYPE": "U", "NORAD_CAT_ID": 66652, "ELEMENT_SET_NO": 999, "REV_AT_EPOCH": 118, "BSTAR": 0.0005252994, "MEAN_MOTION_DOT": 5.254e-05, "MEAN_MOTION_DDOT": 0}, "tle": {"line1": "1 66652U 25274C   25338.56734940  .00005254  00000+0  52530-3 0  9997", "line2": "2 66652  97.7387 265.9080 0010432 289.3386  70.6705 14.91837495  1183"}}, "geometry": {"type": "Point", "coordinates": [-91.88903700697347, -13.537152197818083]}}]}